ONEWEB-0504             
1 54122U 22138K   25008.40023978  .00000002  00000+0 -28525-4 0  9996
2 54122  87.9150  49.2999 0001458  90.4190 269.7109 13.19726156108485
ONEWEB-0505             
1 54123U 22138L   25007.56309362 -.00000011  00000+0 -61001-4 0  9994
2 54123  87.9151  49.4589 0001168 100.8230 259.3034 13.19726438107487
ONEWEB-0506             
1 54124U 22138M   25007.38618622 -.00000002  00000+0 -38486-4 0  9998
2 54124  87.9152  49.4912 0001577  98.7930 261.3381 13.19725673107450
ONEWEB-0507             
1 54125U 22138N   25007.55835143  .00000011  00000+0 -43019-5 0  9995
2 54125  87.9160  49.4955 0001628 102.2377 257.8938 13.19725991107529
ONEWEB-0508             
1 54126U 22138P   25007.85845926 -.00000001  00000+0 -34795-4 0  9999
2 54126  87.9156  49.4232 0001529 108.2491 251.8808 13.19726047107541
ONEWEB-0509             
1 54127U 22138Q   25007.83318965  .00000087  00000+0  18605-3 0  9999
2 54127  87.9149  49.4014 0001671  97.4788 262.6535 13.19726204107517
ONEWEB-0510             
1 54128U 22138R   25008.43996405  .00000097  00000+0  20596-3 0  9991
2 54128  87.9246  18.8351 0002073  94.7678 265.3692 13.20772618110919
ONEWEB-0511             
1 54129U 22138S   25007.83003443  .00000081  00000+0  17059-3 0  9999
2 54129  87.9150  49.4063 0001702  85.0006 275.1321 13.19726501107541
